[{"OBJECT_NAME":"STARLINK-4065","OBJECT_ID":"2022-062M","EPOCH":"2026-03-09T22:14:31.267392","MEAN_MOTION":15.08834722,"ECCENTRICITY":0.00013082,"INCLINATION":53.2184,"RA_OF_ASC_NODE":33.0538,"ARG_OF_PERICENTER":90.9013,"MEAN_ANOMALY":269.2129,"EPHEMERIS_TYPE":0,"CLASSIFICATION_TYPE":"U","NORAD_CAT_ID":52841,"ELEMENT_SET_NO":999,"REV_AT_EPOCH":20582,"BSTAR":-9.019926e-6,"MEAN_MOTION_DOT":-4.31e-6,"MEAN_MOTION_DDOT":0},{"OBJECT_NAME":"CZ-2D DEB","OBJECT_ID":"2010-027D","EPOCH":"2026-03-07T13:36:06.977952","MEAN_MOTION":15.23568143,"ECCENTRICITY":0.0065729,"INCLINATION":97.6621,"RA_OF_ASC_NODE":290.9585,"ARG_OF_PERICENTER":344.0278,"MEAN_ANOMALY":15.8885,"EPHEMERIS_TYPE":0,"CLASSIFICATION_TYPE":"U","NORAD_CAT_ID":38299,"ELEMENT_SET_NO":999,"REV_AT_EPOCH":83553,"BSTAR":0.0024156,"MEAN_MOTION_DOT":0.00061723,"MEAN_MOTION_DDOT":0}]
